STARLINK-34512          
1 64419U 25129H   26068.66670139 -.00045528  00000+0 -38309-2 0  9993
2 64419  70.0002  74.6120 0003259 271.1613   5.2775 14.98346978  5779
SKYKRAFT-4E             
1 65227U 25154L   26068.74493236  .00007969  00000+0  70464-3 0  9993
2 65227  97.6795 135.3397 0004237 218.3459 141.7462 14.96573469 32459
